{"type": "FeatureCollection", "features": [ {"type": "Feature", "properties": {"norad_id": 34738, "name": "COSMOS 2251 DEB", "group": "cosmos-2251-debris", "lat": -5.237448257572528, "lon": -48.406298565377554, "alt_km": 740.6429126529547, "timestamp": "2025-12-19T18:58:41.981052+00:00", "meta": {"OBJECT_NAME": "COSMOS 2251 DEB", "OBJECT_ID": "1993-036ZG", "EPOCH": "2025-12-19T03:59:55.248288", "MEAN_MOTION": 14.46316741, "ECCENTRICITY": 0.00475137, "INCLINATION": 74.0153, "RA_OF_ASC_NODE": 131.2542, "ARG_OF_PERICENTER": 276.3507, "MEAN_ANOMALY": 261.0452, "EPHEMERIS_TYPE": 0, "CLASSIFICATION_TYPE": "U", "NORAD_CAT_ID": 34738, "ELEMENT_SET_NO": 999, "REV_AT_EPOCH": 87951, "BSTAR": 0.00025081452, "MEAN_MOTION_DOT": 8.84e-06, "MEAN_MOTION_DDOT": 0}, "tle": {"line1": "1 34738U 93036ZG  25353.16661167  .00000884  00000+0  25081-3 0  9996", "line2": "2 34738  74.0153 131.2542 0047513 276.3507 261.0452 14.46316741879512"}}, "geometry": {"type": "Point", "coordinates": [-48.406298565377554, -5.237448257572528]}}, {"type": "Feature", "properties": {"norad_id": 34750, "name": "COSMOS 2251 DEB", "group": "cosmos-2251-debris", "lat": 4.494911968006208, "lon": -170.3889452302344, "alt_km": 709.7378612751536, "timestamp": "2025-12-19T18:58:41.981062+00:00", "meta": {"OBJECT_NAME": "COSMOS 2251 DEB", "OBJECT_ID": "1993-036ZU", "EPOCH": "2025-12-18T13:31:33.744864", "MEAN_MOTION": 14.61376682, "ECCENTRICITY": 0.00385835, "INCLINATION": 74.1065, "RA_OF_ASC_NODE": 190.6634, "ARG_OF_PERICENTER": 141.774, "MEAN_ANOMALY": 249.8498, "EPHEMERIS_TYPE": 0, "CLASSIFICATION_TYPE": "U", "NORAD_CAT_ID": 34750, "ELEMENT_SET_NO": 999, "REV_AT_EPOCH": 88316, "BSTAR": 0.00078331421, "MEAN_MOTION_DOT": 3.887e-05, "MEAN_MOTION_DDOT": 0}, "tle": {"line1": "1 34750U 93036ZU  25352.56358501  .00003887  00000+0  78331-3 0  9990", "line2": "2 34750  74.1065 190.6634 0038583 141.7740 249.8498 14.61376682883168"}}, "geometry": {"type": "Point", "coordinates": [-170.3889452302344, 4.494911968006208]}}, {"type": "Feature", "properties": {"norad_id": 34752, "name": "COSMOS 2251 DEB", "group": "cosmos-2251-debris", "lat": 43.54600064860134, "lon": 2.066684042154175, "alt_km": 549.3467221149231, "timestamp": "2025-12-19T18:58:41.981071+00:00", "meta": {"OBJECT_NAME": "COSMOS 2251 DEB", "OBJECT_ID": "1993-036ZW", "EPOCH": "2025-12-19T01:10:05.854368", "MEAN_MOTION": 15.00063476, "ECCENTRICITY": 0.00476109, "INCLINATION": 74.0126, "RA_OF_ASC_NODE": 347.7629, "ARG_OF_PERICENTER": 114.0127, "MEAN_ANOMALY": 246.6054, "EPHEMERIS_TYPE": 0, "CLASSIFICATION_TYPE": "U", "NORAD_CAT_ID": 34752, "ELEMENT_SET_NO": 999, "REV_AT_EPOCH": 89944, "BSTAR": 0.0007110315, "MEAN_MOTION_DOT": 9.043e-05, "MEAN_MOTION_DDOT": 0}, "tle": {"line1": "1 34752U 93036ZW  25353.04867887  .00009043  00000+0  71103-3 0  9998", "line2": "2 34752  74.0126 347.7629 0047610 114.0127 246.6054 15.00063476899448"}}, "geometry": {"type": "Point", "coordinates": [2.066684042154175, 43.54600064860134]}}, {"type": "Feature", "properties": {"norad_id": 34754, "name": "COSMOS 2251 DEB", "group": "cosmos-2251-debris", "lat": -46.9811302655452, "lon": -163.31175629249546, "alt_km": 743.1608867919003, "timestamp": "2025-12-19T18:58:41.981082+00:00", "meta": {"OBJECT_NAME": "COSMOS 2251 DEB", "OBJECT_ID": "1993-036ZY", "EPOCH": "2025-12-19T01:34:44.547168", "MEAN_MOTION": 14.40490266, "ECCENTRICITY": 0.00298161, "INCLINATION": 74.0296, "RA_OF_ASC_NODE": 215.901, "ARG_OF_PERICENTER": 330.8234, "MEAN_ANOMALY": 181.848, "EPHEMERIS_TYPE": 0, "CLASSIFICATION_TYPE": "U", "NORAD_CAT_ID": 34754, "ELEMENT_SET_NO": 999, "REV_AT_EPOCH": 88224, "BSTAR": 0.00016080844, "MEAN_MOTION_DOT": 4.87e-06, "MEAN_MOTION_DDOT": 0}, "tle": {"line1": "1 34754U 93036ZY  25353.06579337  .00000487  00000+0  16081-3 0  9999", "line2": "2 34754  74.0296 215.9010 0029816 330.8234 181.8480 14.40490266882240"}}, "geometry": {"type": "Point", "coordinates": [-163.31175629249546, -46.9811302655452]}}, {"type": "Feature", "properties": {"norad_id": 34755, "name": "COSMOS 2251 DEB", "group": "cosmos-2251-debris", "lat": -57.47106213259369, "lon": -108.18430692416081, "alt_km": 772.9457850393319, "timestamp": "2025-12-19T18:58:41.981100+00:00", "meta": {"OBJECT_NAME": "COSMOS 2251 DEB", "OBJECT_ID": "1993-036ZZ", "EPOCH": "2025-12-19T03:34:40.180224", "MEAN_MOTION": 13.50571437, "ECCENTRICITY": 0.04081139, "INCLINATION": 73.9263, "RA_OF_ASC_NODE": 279.722, "ARG_OF_PERICENTER": 298.4341, "MEAN_ANOMALY": 121.4009, "EPHEMERIS_TYPE": 0, "CLASSIFICATION_TYPE": "U", "NORAD_CAT_ID": 34755, "ELEMENT_SET_NO": 999, "REV_AT_EPOCH": 82610, "BSTAR": 0.00072479106, "MEAN_MOTION_DOT": 7.58e-06, "MEAN_MOTION_DDOT": 0}, "tle": {"line1": "1 34755U 93036ZZ  25353.14907616  .00000758  00000+0  72479-3 0  9998", "line2": "2 34755  73.9263 279.7220 0408113 298.4341 121.4009 13.50571437826103"}}, "geometry": {"type": "Point", "coordinates": [-108.18430692416081, -57.47106213259369]}}, {"type": "Feature", "properties": {"norad_id": 34756, "name": "COSMOS 2251 DEB", "group": "cosmos-2251-debris", "lat": -73.02357275187227, "lon": -17.23027916569028, "alt_km": 892.9369392362323, "timestamp": "2025-12-19T18:58:41.981110+00:00", "meta": {"OBJECT_NAME": "COSMOS 2251 DEB", "OBJECT_ID": "1993-036AAA", "EPOCH": "2025-12-18T15:19:23.700864", "MEAN_MOTION": 13.6725721, "ECCENTRICITY": 0.03454365, "INCLINATION": 74.0031, "RA_OF_ASC_NODE": 94.6691, "ARG_OF_PERICENTER": 329.2106, "MEAN_ANOMALY": 28.9139, "EPHEMERIS_TYPE": 0, "CLASSIFICATION_TYPE": "U", "NORAD_CAT_ID": 34756, "ELEMENT_SET_NO": 999, "REV_AT_EPOCH": 83502, "BSTAR": 0.00084968801, "MEAN_MOTION_DOT": 1.054e-05, "MEAN_MOTION_DDOT": 0}, "tle": {"line1": "1 34756U 93036AAA 25352.63846876  .00001054  00000+0  84969-3 0  9999", "line2": "2 34756  74.0031  94.6691 0345436 329.2106  28.9139 13.67257210835029"}}, "geometry": {"type": "Point", "coordinates": [-17.23027916569028, -73.02357275187227]}}, {"type": "Feature", "properties": {"norad_id": 34758, "name": "COSMOS 2251 DEB", "group": "cosmos-2251-debris", "lat": 26.85458513948183, "lon": 99.8568329829165, "alt_km": 1088.0203741826117, "timestamp": "2025-12-19T18:58:41.981120+00:00", "meta": {"OBJECT_NAME": "COSMOS 2251 DEB", "OBJECT_ID": "1993-036AAC", "EPOCH": "2025-12-17T06:09:51.620544", "MEAN_MOTION": 13.58084731, "ECCENTRICITY": 0.03816404, "INCLINATION": 74.1075, "RA_OF_ASC_NODE": 292.2273, "ARG_OF_PERICENTER": 54.8808, "MEAN_ANOMALY": 308.7451, "EPHEMERIS_TYPE": 0, "CLASSIFICATION_TYPE": "U", "NORAD_CAT_ID": 34758, "ELEMENT_SET_NO": 999, "REV_AT_EPOCH": 82971, "BSTAR": 0.001447828, "MEAN_MOTION_DOT": 1.667e-05, "MEAN_MOTION_DDOT": 0}, "tle": {"line1": "1 34758U 93036AAC 25351.25684746  .00001667  00000+0  14478-2 0  9991", "line2": "2 34758  74.1075 292.2273 0381640  54.8808 308.7451 13.58084731829710"}}, "geometry": {"type": "Point", "coordinates": [99.8568329829165, 26.85458513948183]}}, {"type": "Feature", "properties": {"norad_id": 34760, "name": "COSMOS 2251 DEB", "group": "cosmos-2251-debris", "lat": 21.36512076829568, "lon": 103.36174084512382, "alt_km": 895.9819930249578, "timestamp": "2025-12-19T18:58:41.981130+00:00", "meta": {"OBJECT_NAME": "COSMOS 2251 DEB", "OBJECT_ID": "1993-036AAE", "EPOCH": "2025-12-15T15:17:34.568160", "MEAN_MOTION": 14.19579445, "ECCENTRICITY": 0.00969523, "INCLINATION": 74.0638, "RA_OF_ASC_NODE": 297.1884, "ARG_OF_PERICENTER": 348.6722, "MEAN_ANOMALY": 190.5489, "EPHEMERIS_TYPE": 0, "CLASSIFICATION_TYPE": "U", "NORAD_CAT_ID": 34760, "ELEMENT_SET_NO": 999, "REV_AT_EPOCH": 86729, "BSTAR": 0.00062937679, "MEAN_MOTION_DOT": 1.367e-05, "MEAN_MOTION_DDOT": 0}, "tle": {"line1": "1 34760U 93036AAE 25349.63720565  .00001367  00000+0  62938-3 0  9995", "line2": "2 34760  74.0638 297.1884 0096952 348.6722 190.5489 14.19579445867299"}}, "geometry": {"type": "Point", "coordinates": [103.36174084512382, 21.36512076829568]}}, {"type": "Feature", "properties": {"norad_id": 34761, "name": "COSMOS 2251 DEB", "group": "cosmos-2251-debris", "lat": -6.261535208222405, "lon": 171.59817799687872, "alt_km": 793.5495305663235, "timestamp": "2025-12-19T18:58:41.981144+00:00", "meta": {"OBJECT_NAME": "COSMOS 2251 DEB", "OBJECT_ID": "1993-036AAF", "EPOCH": "2025-12-18T23:45:01.401120", "MEAN_MOTION": 14.38070698, "ECCENTRICITY": 0.00367345, "INCLINATION": 74.029, "RA_OF_ASC_NODE": 351.2733, "ARG_OF_PERICENTER": 23.5424, "MEAN_ANOMALY": 336.7401, "EPHEMERIS_TYPE": 0, "CLASSIFICATION_TYPE": "U", "NORAD_CAT_ID": 34761, "ELEMENT_SET_NO": 999, "REV_AT_EPOCH": 87739, "BSTAR": 0.0004960789, "MEAN_MOTION_DOT": 1.488e-05, "MEAN_MOTION_DDOT": 0}, "tle": {"line1": "1 34761U 93036AAF 25352.98959955  .00001488  00000+0  49608-3 0  9998", "line2": "2 34761  74.0290 351.2733 0036734  23.5424 336.7401 14.38070698877396"}}, "geometry": {"type": "Point", "coordinates": [171.59817799687872, -6.261535208222405]}}, {"type": "Feature", "properties": {"norad_id": 34784, "name": "COSMOS 2251 DEB", "group": "cosmos-2251-debris", "lat": -73.50289009655442, "lon": -124.6947952242966, "alt_km": 729.2778931138901, "timestamp": "2025-12-19T18:58:41.981154+00:00", "meta": {"OBJECT_NAME": "COSMOS 2251 DEB", "OBJECT_ID": "1993-036AAM", "EPOCH": "2025-12-18T22:00:27.495360", "MEAN_MOTION": 14.60805851, "ECCENTRICITY": 0.00492299, "INCLINATION": 74.0074, "RA_OF_ASC_NODE": 312.5311, "ARG_OF_PERICENTER": 119.9872, "MEAN_ANOMALY": 240.6194, "EPHEMERIS_TYPE": 0, "CLASSIFICATION_TYPE": "U", "NORAD_CAT_ID": 34784, "ELEMENT_SET_NO": 999, "REV_AT_EPOCH": 88625, "BSTAR": 0.0003574958, "MEAN_MOTION_DOT": 1.746e-05, "MEAN_MOTION_DDOT": 0}, "tle": {"line1": "1 34784U 93036AAM 25352.91698490  .00001746  00000+0  35750-3 0  9990", "line2": "2 34784  74.0074 312.5311 0049229 119.9872 240.6194 14.60805851886252"}}, "geometry": {"type": "Point", "coordinates": [-124.6947952242966, -73.50289009655442]}}]}